FENGYUN 1C DEB          
1 31732U 99025CEF 17343.16311331  .00000059  00000-0  58938-4 0  9999
2 31732  98.8948  56.6557 0041234 249.5807 110.0932 14.09404361542646
